ONEWEB-0379             
1 49305U 21090AC  26004.38462355 -.00000033  00000+0 -12335-3 0  9995
2 49305  87.9014 322.3447 0001864  78.8043 281.3296 13.14504071206045
ONEWEB-0380             
1 49306U 21090AD  26004.42086225  .00000029  00000+0  40625-4 0  9996
2 49306  87.9214 337.5611 0001821  89.4526 270.6815 13.19725410204825
ONEWEB-0381             
1 49307U 21090AE  26004.37214629 -.00000021  00000+0 -84771-4 0  9996
2 49307  87.9225 307.1133 0001899  82.7811 277.3538 13.20772349208205
ONEWEB-0382             
1 49308U 21090AF  26004.58677957 -.00000079  00000+0 -22570-3 0  9998
2 49308  87.9225 307.0670 0002075  79.6313 280.5054 13.20770376208229
ONEWEB-0383             
1 49309U 21090AG  26004.60663116 -.00000110  00000+0 -33067-3 0  9993
2 49309  87.9016 322.2857 0001933  78.0280 282.1067 13.14502441206108
ONEWEB-0384             
1 49310U 21090AH  26004.57970583 -.00000056  00000+0 -16940-3 0  9990
2 49310  87.9237 307.1063 0002269  77.6556 282.4831 13.20801385208234
ONEWEB-0385             
1 49311U 21090AJ  26004.57889971 -.00000055  00000+0 -16829-3 0  9996
2 49311  87.9224 307.0728 0001891  79.5947 280.5400 13.20772712208202
ONEWEB-0386             
1 49312U 21090AK  26004.59626071  .00000035  00000+0  52999-4 0  9994
2 49312  87.9225 307.0540 0002018  78.1145 282.0215 13.20772960208221
